UNKNOWN                 
1 81833U          25152.52458898  .00000119  00000+0  40369-3 0  9992
2 81833  90.2401 358.6368 0027299 167.6990 192.4801 12.93641550427405
UNKNOWN                 
1 81838U          25151.16939497  .00004540  00000+0  10774-2 0  9993
2 81838  67.7623  56.2440 0040318 211.0742 300.6998 14.54257691604879
UNKNOWN                 
1 81844U          25152.53642800  .00021394  00000+0  79635-2 0  9998
2 81844  82.9117  81.3023 0067963  28.8793 331.6128 14.30637431595106
UNKNOWN                 
1 81845U          25152.00655475  .00002326  00000+0  26848-3 0  9996
2 81845  97.6828 346.1897 0089016 224.3156 290.4414 14.83769676620631
UNKNOWN                 
1 81864U          25150.30291901  .00001004  00000+0  43628-3 0  9995
2 81864  65.6719 165.5198 0757000  98.9760 269.7669 13.31660385524671
UNKNOWN                 
1 81865U 87062    25152.54200725  .00002390  00000+0  19851-2 0  9990
2 81865  82.8048 178.5066 0063406 194.6105 320.9093 13.87379250581610
UNKNOWN                 
1 81893U 70025    25152.20273297  .00001241  00000+0  13213-2 0  9999
2 81893 100.0263 125.1178 0022533  48.7293 311.5791 13.76210950577310
UNKNOWN                 
1 81899U          25152.00187867  .00001010  00000+0  24641-2 0  9997
2 81899 102.4142 218.8444 0175016 263.3198  94.7964 13.19747420553295
UNKNOWN                 
1 81921U          25125.87750446  .00003857  00000+0  14795-2 0  9997
2 81921  65.7097 194.2157 0862830 209.0862 145.9393 13.14268425999513
UNKNOWN                 
1 81946U 87079    25152.53971161  .00000139  00000+0  63807-3 0  9996
2 81946  66.4179 166.0852 0663746  85.4031 357.1807 12.42536755523757
UNKNOWN                 
1 81947U          25151.26095776  .00002777  00000+0  26203-3 0  9993
2 81947  66.0767 352.3944 0401170 261.7965  93.7465 14.50154340602652
UNKNOWN                 
1 81964U          25150.40414064  .00000229  00000+0  22441-3 0  9992
2 81964  66.5861  26.3123 0041064 225.7142 134.0567 13.95653896586647
UNKNOWN                 
1 81969U          25152.50995369  .00025344  00000+0  17062-2 0  9999
2 81969  86.6655 237.3895 0009330 138.4414 221.7533 15.06559488410894
UNKNOWN                 
1 81995U          25151.34910692  .00002837  00000+0  60177-3 0  9993
2 81995  65.7479 273.6956 0516673  34.1346 329.1839 14.00910052576835
UNKNOWN                 
1 82043U          25151.73941183  .00001213  00000+0  35287-3 0  9991
2 82043  97.9100 317.2179 0234121 309.6751  48.3991 14.31230430545941
UNKNOWN                 
1 82051U          25151.95249139  .00005336  00000+0  18428-2 0  9993
2 82051  98.7516 234.9611 0098199 114.5436 246.6022 14.33519064544483
UNKNOWN                 
1 82073U          25152.49422597  .00010328  00000+0  26629-2 0  9997
2 82073  97.7597 247.1730 0212175 159.4627 201.5254 14.37558097547208
UNKNOWN                 
1 82139U          25150.46394882  .00002610  00000+0  13445-2 0  9997
2 82139  99.0345 216.0301 0082639 235.9039 123.4271 14.14338208452361
UNKNOWN                 
1 82162U          25152.19944469  .00003873  00000+0  59066-2 0  9998
2 82162 100.4801  65.8164 0059987 347.1221  12.8377 13.51979645478000
UNKNOWN                 
1 82180U          25152.29580969  .00021786  00000+0  29998-2 0  9994
2 82180  65.6548 114.8127 0345048 314.6875  42.6574 14.44711957573610
UNKNOWN                 
1 82189U          25132.56947727  .00000338  00000+0  12769-3 0  9999
2 82189  74.0344  80.9438 0017113 320.3622  39.6278 14.35037611601693
UNKNOWN                 
1 82199U          25152.09527462  .00000455  00000+0  38330-3 0  9992
2 82199  82.9681  20.2046 0035775 229.0431 286.2044 13.85547633582733
UNKNOWN                 
1 82205U          25152.20847760  .00001557  00000+0  47879-3 0  9991
2 82205  63.0086  76.9197 0494121 272.8427  81.6190 13.92130597580912
UNKNOWN                 
1 82223U          25151.37711875  .00002255  00000+0  12562-2 0  9991
2 82223  99.3346  29.8319 0069250 168.6281 191.6473 14.10849287421236
UNKNOWN                 
1 82250U          25146.19551921  .00003040  00000+0  16338-2 0  9997
2 82250  98.9154  52.6530 0075186  39.7029 117.3193 14.12211911588316
UNKNOWN                 
1 82272U          25143.59081850  .00000646  00000+0  21235-2 0  9992
2 82272  67.5235 208.6312 0760668 236.6784 115.9157 12.33367989246880
UNKNOWN                 
1 82295U          25148.44336226  .00000660  00000+0  26257-3 0  9992
2 82295  66.6214 309.5253 0124247 357.9704   2.0872 14.30741965551353
UNKNOWN                 
1 82303U          25152.50287451  .00063320  00000+0  62564-1 0  9990
2 82303  81.9460 169.0708 0107905 126.5594  25.3841 13.75535179487638
UNKNOWN                 
1 82311U          25152.62075339  .00001039  00000+0  15262-2 0  9995
2 82311  99.4468 215.1435 0111825  78.7092 282.6588 13.54252834524040
UNKNOWN                 
1 82363U          25149.01361344  .00000271  00000+0  51399-3 0  9994
2 82363  66.9371 257.3465 0463815 291.3384  63.8758 13.15408652264256
UNKNOWN                 
1 82369U 99025    25152.51926854  .00000197  00000+0  16379-3 0  9993
2 82369  98.9067 173.3174 0084139 154.8350 205.6950 13.98047704530037
UNKNOWN                 
1 82381U          25152.56090112  .00071871  00000+0  11213-1 0  9993
2 82381  98.4099   9.7579 0012640  43.8045 316.4161 14.72438629482177
UNKNOWN                 
1 82402U          25152.48849792  .00005594  00000+0  43801-3 0  9993
2 82402  86.6633 239.2438 0010431 139.6824 220.5184 15.00794896425319
UNKNOWN                 
1 82410U          25146.58356165  .00000170  00000+0  24415-3 0  9998
2 82410  66.6562  99.3675 0061037 180.0311 180.0766 13.77118660559173
UNKNOWN                 
1 82432U 93036    25150.96898769  .00001614  00000+0  35318-3 0  9999
2 82432  74.0060 353.6422 0057635 205.4396 154.3929 14.57582126454375
UNKNOWN                 
1 82448U          25151.42660039  .00006243  00000+0  48778-3 0  9991
2 82448  85.8709 303.4612 0006980 237.8037 122.2518 15.00917487407720
UNKNOWN                 
1 82453U          25150.57736419  .00000018  00000+0  46954-3 0  9996
2 82453 102.1484 107.3396 0093218 208.7856 150.8043 12.39680372521754
UNKNOWN                 
1 82458U          25152.22936531  .00004351  00000+0  20078-2 0  9994
2 82458  66.5152 329.4187 0047422 151.5909 208.7784 14.21297430582382
UNKNOWN                 
1 82484U          25150.36477093  .00000108  00000+0  21383-3 0  9996
2 82484  99.3710 181.8724 0043199 334.6704  25.2316 13.55702780564025
UNKNOWN                 
1 82494U 93036    25152.41873980  .00012181  00000+0  16513-2 0  9993
2 82494  74.0106  46.2593 0010959 212.6903 147.3595 14.78928839 56186
UNKNOWN                 
1 82500U          25150.44258550  .00005092  00000+0  23790-2 0  9999
2 82500  70.9672  58.6233 0123515  54.7923 306.4690 14.16820164591132
UNKNOWN                 
1 82524U          25151.82660944  .00003262  00000+0  10954-2 0  9997
2 82524  73.2814 194.3814 0141694 329.2648 144.4241 14.32150606549115
UNKNOWN                 
1 82529U          25152.53098883  .00002032  00000+0  31945-2 0  9995
2 82529  99.7941 242.0250 0236024 355.3084  15.8672 13.40862441563711
UNKNOWN                 
1 82560U          25147.06214648  .00000933  00000+0  79645-3 0  9999
2 82560  99.9802  75.1512 0011497  99.0052 277.4149 13.90020379584126
UNKNOWN                 
1 82597U          25149.15358234  .00001741  00000+0  61542-3 0  9996
2 82597  66.7705 307.7985 0086647  96.7432 264.3539 14.34879552600629
UNKNOWN                 
1 82617U          25152.61665112  .00001305  00000+0  34742-3 0  9998
2 82617  74.0275 247.8969 0039483 240.5075 119.2144 14.49081795608707
UNKNOWN                 
1 82627U          25149.13230990  .00000759  00000+0  19717-2 0  9990
2 82627  82.4787  29.5250 0009343 254.1997 259.7845 13.15998153552830
UNKNOWN                 
1 82642U          25152.46460023  .00004406  00000+0  24696-2 0  9994
2 82642  98.9795  64.5059 0139382  60.0708 301.4218 14.06333866588827
UNKNOWN                 
1 82683U 99057    25151.96979520  .00001149  00000+0  45325-3 0  9994
2 82683  98.1871 235.4292 0211056 245.4329 112.4723 14.19498286434636
UNKNOWN                 
1 82693U          25147.60737401  .00002101  00000+0  25035-2 0  9995
2 82693 100.5347  93.0379 0039812 154.6659 205.6445 13.68352033526519
UNKNOWN                 
1 82698U          25152.16435130  .00002125  00000+0  12765-2 0  9993
2 82698  61.6108 311.1351 0691071 217.1754 137.9456 13.28707895512512
UNKNOWN                 
1 82708U          25150.24876997  .00001127  00000+0  44707-2 0  9994
2 82708 102.1759 334.4295 0058741 326.7250  33.0155 12.90132022498170
UNKNOWN                 
1 82729U          25152.31556678  .00000222  00000+0  89316-3 0  9999
2 82729  67.9653 121.8745 0824624 144.5223 221.3605 12.17477444511536
UNKNOWN                 
1 82739U          25152.41420826  .00002177  00000+0  18363-2 0  9990
2 82739  99.0723 315.7497 0176340  93.6675 298.4472 13.81919698579264
UNKNOWN                 
1 82741U          25152.17028851  .00003002  00000+0  33011-2 0  9993
2 82741 102.8524 125.2048 0202666 343.4810  15.9782 13.64958759570521
UNKNOWN                 
1 82778U          25134.83402661  .04905733  19132-5  12008-2 0  9992
2 82778  35.4222 355.4901 0013731 295.0929 159.6376 16.27863882 14902
UNKNOWN                 
1 82783U          25152.61661071  .00000634  00000+0  18350-2 0  9992
2 82783  90.3330  32.0739 0021964 284.3072  75.5617 13.08772112478967
UNKNOWN                 
1 82798U          25151.32160757  .00002061  00000+0  92242-3 0  9999
2 82798  82.9512 348.2673 0031957  42.1452 136.3614 14.21907417284586
UNKNOWN                 
1 82820U          25151.09123867  .00003873  00000+0  14087-2 0  9992
2 82820  99.7783 286.3909 0051339 210.3838 149.4364 14.33162163597594
